start=new Date('2021-11-15T00:00:00.000Z').valueOf();
sats=[{"ELEMENT_SET_NO":"999","DECAY_DATE":null,"FILE":"3215179","COUNTRY_CODE":"US","MEAN_ELEMENT_THEORY":"SGP4","PERIAPSIS":"546.288","EPOCH":"2021-11-14T21:12:48.059712","NORAD_CAT_ID":"45742","BSTAR":"-0.00007010900000","CLASSIFICATION_TYPE":"U","TIME_SYSTEM":"UTC","ECCENTRICITY":"0.00013750","OBJECT_TYPE":"PAYLOAD","TLE_LINE1":"1 45742U 20038N   21318.88388958 -.00001325  00000-0 -70109-4 0  9991","MEAN_ANOMALY":"270.4510","INCLINATION":"53.0539","OBJECT_NAME":"STARLINK-1481","MEAN_MOTION_DDOT":"0.0000000000000","REF_FRAME":"TEME","MEAN_MOTION":"15.06391352","OBJECT_ID":"2020-038N","RCS_SIZE":"LARGE","EPHEMERIS_TYPE":"0","CENTER_NAME":"EARTH","GP_ID":"189773035","RA_OF_ASC_NODE":"110.6843","MEAN_MOTION_DOT":"-0.00001325","SEMIMAJOR_AXIS":"6925.375","PERIOD":"95.593","LAUNCH_DATE":"2020-06-13","ARG_OF_PERICENTER":"89.6636","REV_AT_EPOCH":"7867","TLE_LINE2":"2 45742  53.0539 110.6843 0001375  89.6636 270.4510 15.06391352 78678","APOAPSIS":"548.192","SITE":"AFETR"},{"TLE_LINE2":"2 45743  53.0544 110.8394 0001268  79.2361 280.8770 15.06394664 78671","APOAPSIS":"548.108","SITE":"AFETR","PERIOD":"95.592","LAUNCH_DATE":"2020-06-13","ARG_OF_PERICENTER":"79.2361","REV_AT_EPOCH":"7867","CENTER_NAME":"EARTH","GP_ID":"189771783","RA_OF_ASC_NODE":"110.8394","MEAN_MOTION_DOT":"0.00000512","SEMIMAJOR_AXIS":"6925.365","MEAN_MOTION_DDOT":"0.0000000000000","REF_FRAME":"TEME","OBJECT_ID":"2020-038P","MEAN_MOTION":"15.06394664","RCS_SIZE":"LARGE","EPHEMERIS_TYPE":"0","TLE_LINE1":"1 45743U 20038P   21318.85071373  .00000512  00000-0  53271-4 0  9995","INCLINATION":"53.0544","MEAN_ANOMALY":"280.8770","OBJECT_NAME":"STARLINK-1483","NORAD_CAT_ID":"45743","CLASSIFICATION_TYPE":"U","BSTAR":"0.00005327100000","TIME_SYSTEM":"UTC","OBJECT_TYPE":"PAYLOAD","ECCENTRICITY":"0.00012680","PERIAPSIS":"546.352","EPOCH":"2021-11-14T20:25:01.666272","ELEMENT_SET_NO":"999","DECAY_DATE":null,"FILE":"3215179","MEAN_ELEMENT_THEORY":"SGP4","COUNTRY_CODE":"US"},{"PERIOD":"95.592","LAUNCH_DATE":"2020-06-13","ARG_OF_PERICENTER":"87.2052","REV_AT_EPOCH":"7868","TLE_LINE2":"2 45744  53.0548 110.7459 0001450  87.2052 272.9103 15.06396446 78689","APOAPSIS":"548.229","SITE":"AFETR","MEAN_MOTION_DDOT":"0.0000000000000","REF_FRAME":"TEME","OBJECT_ID":"2020-038Q","MEAN_MOTION":"15.06396446","RCS_SIZE":"LARGE","EPHEMERIS_TYPE":"0","CENTER_NAME":"EARTH","GP_ID":"189772033","MEAN_MOTION_DOT":"-0.00001104","RA_OF_ASC_NODE":"110.7459","SEMIMAJOR_AXIS":"6925.359","NORAD_CAT_ID":"45744","BSTAR":"-0.00005524400000","CLASSIFICATION_TYPE":"U","TIME_SYSTEM":"UTC","OBJECT_TYPE":"PAYLOAD","ECCENTRICITY":"0.00014500","TLE_LINE1":"1 45744U 20038Q   21318.87283526 -.00001104  00000-0 -55244-4 0  9995","MEAN_ANOMALY":"272.9103","INCLINATION":"53.0548","OBJECT_NAME":"STARLINK-1500","ELEMENT_SET_NO":"999","DECAY_DATE":null,"FILE":"3215179","MEAN_ELEMENT_THEORY":"SGP4","COUNTRY_CODE":"US","PERIAPSIS":"546.220","EPOCH":"2021-11-14T20:56:52.966464"},{"CENTER_NAME":"EARTH","GP_ID":"189772785","MEAN_MOTION_DOT":"0.00001690","RA_OF_ASC_NODE":"110.7914","SEMIMAJOR_AXIS":"6925.361","MEAN_MOTION_DDOT":"0.0000000000000","REF_FRAME":"TEME","OBJECT_ID":"2020-038R","MEAN_MOTION":"15.06395984","RCS_SIZE":"LARGE","EPHEMERIS_TYPE":"0","APOAPSIS":"548.166","TLE_LINE2":"2 45745  53.0547 110.7914 0001357  89.6531 270.4614 15.06395984 78674","SITE":"AFETR","PERIOD":"95.592","LAUNCH_DATE":"2020-06-13","ARG_OF_PERICENTER":"89.6531","REV_AT_EPOCH":"7867","PERIAPSIS":"546.286","EPOCH":"2021-11-14T20:40:57.514656","ELEMENT_SET_NO":"999","DECAY_DATE":null,"FILE":"3215179","MEAN_ELEMENT_THEORY":"SGP4","COUNTRY_CODE":"US","TLE_LINE1":"1 45745U 20038R   21318.86177679  .00001690  00000-0  13233-3 0  9995","MEAN_ANOMALY":"270.4614","INCLINATION":"53.0547","OBJECT_NAME":"STARLINK-1503","NORAD_CAT_ID":"45745","CLASSIFICATION_TYPE":"U","BSTAR":"0.00013233000000","TIME_SYSTEM":"UTC","OBJECT_TYPE":"PAYLOAD","ECCENTRICITY":"0.00013570"},{"ELEMENT_SET_NO":"999","FILE":"3215179","DECAY_DATE":null,"MEAN_ELEMENT_THEORY":"SGP4","COUNTRY_CODE":"US","PERIAPSIS":"546.160","EPOCH":"2021-11-14T21:02:11.770368","NORAD_CAT_ID":"45746","BSTAR":"0.00008721400000","CLASSIFICATION_TYPE":"U","TIME_SYSTEM":"UTC","OBJECT_TYPE":"PAYLOAD","ECCENTRICITY":"0.00015550","TLE_LINE1":"1 45746U 20038S   21318.87652512  .00001018  00000-0  87214-4 0  9996","MEAN_ANOMALY":"278.1730","INCLINATION":"53.0531","OBJECT_NAME":"STARLINK-1504","REF_FRAME":"TEME","MEAN_MOTION_DDOT":"0.0000000000000","RCS_SIZE":"LARGE","MEAN_MOTION":"15.06392534","OBJECT_ID":"2020-038S","EPHEMERIS_TYPE":"0","CENTER_NAME":"EARTH","RA_OF_ASC_NODE":"110.7222","MEAN_MOTION_DOT":"0.00001018","GP_ID":"189772536","SEMIMAJOR_AXIS":"6925.371","PERIOD":"95.593","LAUNCH_DATE":"2020-06-13","ARG_OF_PERICENTER":"81.9435","REV_AT_EPOCH":"7867","TLE_LINE2":"2 45746  53.0531 110.7222 0001555  81.9435 278.1730 15.06392534 78670","APOAPSIS":"548.313","SITE":"AFETR"},{"SEMIMAJOR_AXIS":"6925.352","CENTER_NAME":"EARTH","GP_ID":"189771284","MEAN_MOTION_DOT":"0.00000458","RA_OF_ASC_NODE":"111.2989","OBJECT_ID":"2020-038T","MEAN_MOTION":"15.06398886","RCS_SIZE":"LARGE","EPHEMERIS_TYPE":"0","MEAN_MOTION_DDOT":"0.0000000000000","REF_FRAME":"TEME","SITE":"AFETR","TLE_LINE2":"2 45747  53.0542 111.2989 0001356  81.2312 278.8831 15.06398886 78669","APOAPSIS":"548.156","ARG_OF_PERICENTER":"81.2312","REV_AT_EPOCH":"7866","PERIOD":"95.592","LAUNCH_DATE":"2020-06-13","PERIAPSIS":"546.278","EPOCH":"2021-11-14T17:56:24.584928","DECAY_DATE":null,"FILE":"3215179","MEAN_ELEMENT_THEORY":"SGP4","COUNTRY_CODE":"US","ELEMENT_SET_NO":"999","MEAN_ANOMALY":"278.8831","INCLINATION":"53.0542","OBJECT_NAME":"STARLINK-1506","TLE_LINE1":"1 45747U 20038T   21318.74750677  .00000458  00000-0  49622-4 0  9992","TIME_SYSTEM":"UTC","OBJECT_TYPE":"PAYLOAD","ECCENTRICITY":"0.00013560","NORAD_CAT_ID":"45747","CLASSIFICATION_TYPE":"U","BSTAR":"0.00004962200000"},{"NORAD_CAT_ID":"45748","CLASSIFICATION_TYPE":"U","BSTAR":"0.00338840000000","TIME_SYSTEM":"UTC","ECCENTRICITY":"0.00012060","OBJECT_TYPE":"PAYLOAD","TLE_LINE1":"1 45748U 20038U   21318.86818013  .00050167  00000-0  33884-2 0  9998","INCLINATION":"53.0533","MEAN_ANOMALY":"275.0946","OBJECT_NAME":"STARLINK-1507","ELEMENT_SET_NO":"999","FILE":"3215179","DECAY_DATE":null,"MEAN_ELEMENT_THEORY":"SGP4","COUNTRY_CODE":"US","PERIAPSIS":"547.236","EPOCH":"2021-11-14T20:50:10.763232","PERIOD":"95.610","LAUNCH_DATE":"2020-06-13","ARG_OF_PERICENTER":"85.0181","REV_AT_EPOCH":"7867","TLE_LINE2":"2 45748  53.0533 110.7902 0001206  85.0181 275.0946 15.06120093 78679","APOAPSIS":"548.907","SITE":"AFETR","REF_FRAME":"TEME","MEAN_MOTION_DDOT":"0.0000000000000","RCS_SIZE":"LARGE","OBJECT_ID":"2020-038U","MEAN_MOTION":"15.06120093","EPHEMERIS_TYPE":"0","CENTER_NAME":"EARTH","MEAN_MOTION_DOT":"0.00050167","RA_OF_ASC_NODE":"110.7902","GP_ID":"189771534","SEMIMAJOR_AXIS":"6926.207"},{"NORAD_CAT_ID":"45750","BSTAR":"0.00017602000000","CLASSIFICATION_TYPE":"U","TIME_SYSTEM":"UTC","OBJECT_TYPE":"PAYLOAD","ECCENTRICITY":"0.00010020","TLE_LINE1":"1 45750U 20038W   21318.69773708  .00002341  00000-0  17602-3 0  9995","MEAN_ANOMALY":"274.4177","INCLINATION":"53.0565","OBJECT_NAME":"STARLINK-1391","ELEMENT_SET_NO":"999","DECAY_DATE":null,"FILE":"3215179","MEAN_ELEMENT_THEORY":"SGP4","COUNTRY_CODE":"US","PERIAPSIS":"546.543","EPOCH":"2021-11-14T16:44:44.483712","PERIOD":"95.593","LAUNCH_DATE":"2020-06-13","ARG_OF_PERICENTER":"85.6927","REV_AT_EPOCH":"7894","TLE_LINE2":"2 45750  53.0565  91.5320 0001002  85.6927 274.4177 15.06392388 78942","APOAPSIS":"547.931","SITE":"AFETR","MEAN_MOTION_DDOT":"0.0000000000000","REF_FRAME":"TEME","OBJECT_ID":"2020-038W","MEAN_MOTION":"15.06392388","RCS_SIZE":"LARGE","EPHEMERIS_TYPE":"0","CENTER_NAME":"EARTH","GP_ID":"189772286","MEAN_MOTION_DOT":"0.00002341","RA_OF_ASC_NODE":"91.5320","SEMIMAJOR_AXIS":"6925.372"},{"SITE":"AFETR","TLE_LINE2":"2 45751  53.0533  92.4319 0002116 119.7125 240.4074 15.06372124 78914","APOAPSIS":"548.764","REV_AT_EPOCH":"7891","ARG_OF_PERICENTER":"119.7125","LAUNCH_DATE":"2020-06-13","PERIOD":"95.594","SEMIMAJOR_AXIS":"6925.434","GP_ID":"189745252","MEAN_MOTION_DOT":"0.00005614","RA_OF_ASC_NODE":"92.4319","CENTER_NAME":"EARTH","EPHEMERIS_TYPE":"0","MEAN_MOTION":"15.06372124","OBJECT_ID":"2020-038X","RCS_SIZE":"LARGE","MEAN_MOTION_DDOT":"0.0000000000000","REF_FRAME":"TEME","OBJECT_NAME":"STARLINK-1464","INCLINATION":"53.0533","MEAN_ANOMALY":"240.4074","TLE_LINE1":"1 45751U 20038X   21318.49503515  .00005614  00000-0  39575-3 0  9990","ECCENTRICITY":"0.00021160","OBJECT_TYPE":"PAYLOAD","TIME_SYSTEM":"UTC","CLASSIFICATION_TYPE":"U","BSTAR":"0.00039575000000","NORAD_CAT_ID":"45751","EPOCH":"2021-11-14T11:52:51.036960","PERIAPSIS":"545.834","COUNTRY_CODE":"US","MEAN_ELEMENT_THEORY":"SGP4","DECAY_DATE":null,"FILE":"3214995","ELEMENT_SET_NO":"999"},{"MEAN_ANOMALY":"64.8953","INCLINATION":"52.9960","OBJECT_NAME":"STARLINK-1469","TLE_LINE1":"1 45752U 20038Y   21318.83903374  .00007103  00000-0  72764-4 0  9999","TIME_SYSTEM":"UTC","OBJECT_TYPE":"PAYLOAD","ECCENTRICITY":"0.00084180","NORAD_CAT_ID":"45752","BSTAR":"0.00007276400000","CLASSIFICATION_TYPE":"U","PERIAPSIS":"363.976","EPOCH":"2021-11-14T20:08:12.515136","FILE":"3215179","DECAY_DATE":null,"MEAN_ELEMENT_THEORY":"SGP4","COUNTRY_CODE":"US","ELEMENT_SET_NO":"999","SITE":"AFETR","APOAPSIS":"375.337","TLE_LINE2":"2 45752  52.9960 248.8416 0008418 295.1187  64.8953 15.66247021 81764","ARG_OF_PERICENTER":"295.1187","REV_AT_EPOCH":"8176","PERIOD":"91.940","LAUNCH_DATE":"2020-06-13","SEMIMAJOR_AXIS":"6747.792","CENTER_NAME":"EARTH","MEAN_MOTION_DOT":"0.00007103","RA_OF_ASC_NODE":"248.8416","GP_ID":"189771784","RCS_SIZE":"LARGE","MEAN_MOTION":"15.66247021","OBJECT_ID":"2020-038Y","EPHEMERIS_TYPE":"0","REF_FRAME":"TEME","MEAN_MOTION_DDOT":"0.0000000000000"}];
